ONEWEB-0534             
1 55797U 23029B   24017.72331683  .00000012  00000+0 -27606-5 0  9995
2 55797  87.9183  89.9407 0001843 110.4312 249.7020 13.20772148 44799
ONEWEB-0556             
1 55798U 23029C   24018.18416526  .00000020  00000+0  16182-4 0  9991
2 55798  87.9183  89.8428 0001601 135.8696 224.2565 13.20772563 45547
ONEWEB-0562             
1 55799U 23029D   24018.24729884  .00000007  00000+0 -14086-4 0  9990
2 55799  87.9183  89.8198 0000833 136.6826 223.4373 13.20771634 45548
ONEWEB-0563             
1 55800U 23029E   24018.16523367  .00000080  00000+0  16398-3 0  9999
2 55800  87.9185  89.8512 0001748 116.1545 243.9769 13.20771789 45525
ONEWEB-0564             
1 55801U 23029F   24017.70438077  .00000088  00000+0  18516-3 0  9994
2 55801  87.9185  89.9271 0001327  98.0244 262.1040 13.20771847 44794
ONEWEB-0638             
1 55802U 23029G   24018.17747060 -.00000066  00000+0 -21354-3 0  9994
2 55802  87.8980 105.1215 0002039 127.6707 232.4608 13.14503178 44366
ONEWEB-0639             
1 55803U 23029H   24018.34403441 -.00000006  00000+0 -46119-4 0  9997
2 55803  87.9211 120.3143 0003224 109.7337 250.4144 13.19726919 43416
ONEWEB-0640             
1 55804U 23029J   24017.80639810 -.00000175  00000+0 -50707-3 0  9993
2 55804  87.8978 105.1946 0002271 129.4187 230.7144 13.14502829 43622
